OBJECT_NAME,OBJECT_ID,EPOCH,MEAN_MOTION,ECCENTRICITY,INCLINATION,RA_OF_ASC_NODE,ARG_OF_PERICENTER,MEAN_ANOMALY,EPHEMERIS_TYPE,CLASSIFICATION_TYPE,NORAD_CAT_ID,ELEMENT_SET_NO,REV_AT_EPOCH,BSTAR,MEAN_MOTION_DOT,MEAN_MOTION_DDOT
SKYSAT-C1,2016-040C,2026-06-10T01:13:55.265376,15.36179993,.0004048,96.9572,193.1585,71.6760,288.4925,0,U,41601,999,55677,.24608454E-3,.8604E-4,0
LAPAN-A3,2016-040E,2026-06-10T06:32:23.667360,15.33060756,.00116224,97.1486,157.6455,48.3138,311.9098,0,U,41603,999,55375,.97692128E-4,.305E-4,0
GAOFEN-3,2016-049A,2026-06-10T06:50:17.768832,14.42215021,.0001267,98.4016,169.1753,100.4197,259.7135,0,U,41727,999,51765,.59993554E-4,.154E-5,0
SKYSAT-C4,2016-058B,2026-06-10T00:42:56.948256,15.48364658,.00008784,96.9183,183.1024,107.8953,252.2395,0,U,41771,999,54436,.3051392E-3,.16075E-3,0
SKYSAT-C5,2016-058C,2026-06-10T01:27:37.335456,15.34367885,.00018058,97.0478,202.0194,358.8078,1.3161,0,U,41772,999,54265,.22087954E-3,.7277E-4,0
SKYSAT-C2,2016-058D,2026-06-10T07:34:41.081664,15.41914089,.00050562,97.0175,183.6699,85.2192,274.9633,0,U,41773,999,54399,.27083738E-3,.11439E-3,0
SKYSAT-C3,2016-058E,2026-06-10T01:16:02.854848,15.52233472,.00018491,96.9013,192.1762,83.2709,276.8755,0,U,41774,999,54500,.37703079E-3,.22814E-3,0
ALSAT-1B,2016-059C,2026-06-10T07:23:23.146656,14.72269264,.00077619,97.7756,170.3686,246.2453,113.7941,0,U,41785,999,51956,.43327443E-4,.227E-5,0
PATHFINDER 1,2016-059E,2026-06-10T06:00:56.209248,14.67655209,.0027319,97.8166,160.8399,226.3952,133.4987,0,U,41787,999,51869,.95468756E-4,.499E-5,0
SCATSAT 1,2016-059H,2026-06-10T04:18:44.985312,14.79510852,.00532564,98.1191,224.8734,270.6712,88.8397,0,U,41790,999,10055,.12691376E-3,.914E-5,0
GOKTURK 1A,2016-073A,2026-06-10T06:26:40.134048,14.62769307,.00014569,98.1255,56.0511,76.9198,283.2166,0,U,41875,999,50781,.54396618E-4,.231E-5,0
RESOURCESAT-2A,2016-074A,2026-06-10T07:32:18.976128,14.21614945,.00033517,98.7523,234.8744,97.1203,263.0356,0,U,41877,999,49332,.11121118E-3,.2E-5,0
CARTOSAT-2D,2017-008A,2026-06-10T05:49:47.406720,15.19281539,.00036747,97.4108,220.6783,261.0700,99.0119,0,U,41948,999,51652,.21859852E-3,.4544E-4,0
SENTINEL-2B,2017-013A,2026-06-10T06:49:32.819232,14.30814631,.00011856,98.5687,236.1562,86.7784,273.3534,0,U,42063,999,48365,-.1880389E-4,-.93E-6,0
CARTOSAT-2E,2017-036C,2026-06-10T07:49:59.390112,15.19266213,.00028497,97.4275,221.2418,350.9352,9.1831,0,U,42767,999,49710,.10800323E-3,.2209E-4,0
FORMOSAT-5,2017-049A,2026-06-10T05:24:45.474048,14.50896287,.00126857,98.2253,236.6898,103.5041,256.7569,0,U,42920,999,46566,.43565098E-4,.128E-5,0
SENTINEL-5P,2017-064A,2026-06-10T01:59:13.256448,14.19517789,.00009988,98.7924,103.2646,82.6383,277.4906,0,U,42969,999,44855,.40274522E-4,.41E-6,0
SKYSAT-C11,2017-068A,2026-06-09T22:14:30.483744,15.57518250,.00009862,97.4342,309.4447,88.7602,271.3766,0,U,42987,999,48211,.35583453E-3,.26116E-3,0
SKYSAT-C10,2017-068B,2026-06-10T02:52:17.108544,15.34518207,.0001215,97.4491,297.8994,91.4838,268.6545,0,U,42988,999,48127,.2644072E-3,.8761E-4,0
SKYSAT-C9,2017-068C,2026-06-09T21:41:06.223200,15.41381797,.00090565,97.4412,298.5468,156.3831,203.7833,0,U,42989,999,48163,.29895606E-3,.12419E-3,0
SKYSAT-C8,2017-068D,2026-06-10T02:26:26.341728,15.36837328,.00015436,97.4508,297.6541,97.9294,262.2125,0,U,42990,999,48122,.28141302E-3,.10052E-3,0
SKYSAT-C7,2017-068E,2026-06-09T15:20:34.080576,15.36775179,.00070425,97.4519,298.1747,128.7138,231.4737,0,U,42991,999,48121,.26870831E-3,.9581E-4,0
SKYSAT-C6,2017-068F,2026-06-10T02:27:35.091936,15.34088137,.00040345,97.4555,298.6395,156.3083,203.8347,0,U,42992,999,48123,.2670205E-3,.873E-4,0
GAOFEN-1 02,2018-031A,2026-06-10T07:38:04.374816,14.76470839,.00042414,98.0526,223.8642,48.6549,311.5025,0,U,43259,999,44168,.42434081E-4,.244E-5,0
GAOFEN-1 03,2018-031B,2026-06-10T07:06:40.248288,14.76459134,.00038268,98.0525,223.7015,92.8210,267.3438,0,U,43260,999,44167,.93241319E-4,.597E-5,0
GAOFEN-1 04,2018-031D,2026-06-10T06:31:41.685600,14.76469842,.00022331,98.0527,223.8671,89.8312,270.3153,0,U,43262,999,44166,.11404525E-3,.742E-5,0
SENTINEL-3B,2018-039A,2026-06-10T04:14:27.858912,14.26739770,.00008297,98.6248,228.8094,79.5130,280.6144,0,U,43437,999,42312,.52565784E-4,.84E-6,0
GAOFEN-5 01,2018-043A,2026-06-10T05:04:08.071392,14.60600622,.00030336,98.4566,132.6511,95.9552,264.1994,0,U,43461,999,43067,.6914395E-4,.287E-5,0
GAOFEN-6,2018-048A,2026-06-09T01:47:54.508416,14.76624229,.0011378,97.7757,223.0567,194.8499,165.2379,0,U,43484,999,43219,.12207314E-3,.804E-5,0
